[{"OBJECT_NAME":"FLOCK 4BE-33","OBJECT_ID":"2024-149AL","EPOCH":"2026-04-04T18:41:19.673952","MEAN_MOTION":15.77379006,"ECCENTRICITY":0.0005541,"INCLINATION":97.3627,"RA_OF_ASC_NODE":180.696,"ARG_OF_PERICENTER":190.0675,"MEAN_ANOMALY":170.0481,"EPHEMERIS_TYPE":0,"CLASSIFICATION_TYPE":"U","NORAD_CAT_ID":60502,"ELEMENT_SET_NO":999,"REV_AT_EPOCH":9120,"BSTAR":0.0019162,"MEAN_MOTION_DOT":0.00326803,"MEAN_MOTION_DDOT":0},{"OBJECT_NAME":"FLOCK 4BE-10","OBJECT_ID":"2024-149AM","EPOCH":"2026-04-04T18:19:02.360064","MEAN_MOTION":15.97462233,"ECCENTRICITY":0.0006645,"INCLINATION":97.3595,"RA_OF_ASC_NODE":182.841,"ARG_OF_PERICENTER":260.284,"MEAN_ANOMALY":99.7687,"EPHEMERIS_TYPE":0,"CLASSIFICATION_TYPE":"U","NORAD_CAT_ID":60503,"ELEMENT_SET_NO":999,"REV_AT_EPOCH":9131,"BSTAR":0.0023354,"MEAN_MOTION_DOT":0.01021859,"MEAN_MOTION_DDOT":0.00049801},{"OBJECT_NAME":"YAM-7","OBJECT_ID":"2024-149AN","EPOCH":"2026-04-04T19:17:55.813344","MEAN_MOTION":15.30803797,"ECCENTRICITY":0.0003618,"INCLINATION":97.3797,"RA_OF_ASC_NODE":175.4046,"ARG_OF_PERICENTER":170.4889,"MEAN_ANOMALY":189.6421,"EPHEMERIS_TYPE":0,"CLASSIFICATION_TYPE":"U","NORAD_CAT_ID":60504,"ELEMENT_SET_NO":999,"REV_AT_EPOCH":9082,"BSTAR":0.00038331,"MEAN_MOTION_DOT":0.00011341,"MEAN_MOTION_DDOT":0},{"OBJECT_NAME":"FLOCK 4BE-24","OBJECT_ID":"2024-149AP","EPOCH":"2026-04-04T18:14:55.714848","MEAN_MOTION":15.40390396,"ECCENTRICITY":0.000478,"INCLINATION":97.3728,"RA_OF_ASC_NODE":178.4347,"ARG_OF_PERICENTER":174.1053,"MEAN_ANOMALY":186.025,"EPHEMERIS_TYPE":0,"CLASSIFICATION_TYPE":"U","NORAD_CAT_ID":60505,"ELEMENT_SET_NO":999,"REV_AT_EPOCH":9105,"BSTAR":0.00065569,"MEAN_MOTION_DOT":0.00026481,"MEAN_MOTION_DDOT":0},{"OBJECT_NAME":"LUR-1","OBJECT_ID":"2024-149AQ","EPOCH":"2026-04-04T18:41:52.671840","MEAN_MOTION":15.29141398,"ECCENTRICITY":0.000394,"INCLINATION":97.3758,"RA_OF_ASC_NODE":174.1869,"ARG_OF_PERICENTER":184.3075,"MEAN_ANOMALY":175.8132,"EPHEMERIS_TYPE":0,"CLASSIFICATION_TYPE":"U","NORAD_CAT_ID":60506,"ELEMENT_SET_NO":999,"REV_AT_EPOCH":9075,"BSTAR":0.00041016,"MEAN_MOTION_DOT":0.00011534,"MEAN_MOTION_DDOT":0},{"OBJECT_NAME":"TANAGER-1","OBJECT_ID":"2024-149AR","EPOCH":"2026-04-04T19:38:59.580960","MEAN_MOTION":15.43809009,"ECCENTRICITY":0.000723,"INCLINATION":97.3726,"RA_OF_ASC_NODE":188.5532,"ARG_OF_PERICENTER":199.1597,"MEAN_ANOMALY":160.938,"EPHEMERIS_TYPE":0,"CLASSIFICATION_TYPE":"U","NORAD_CAT_ID":60507,"ELEMENT_SET_NO":999,"REV_AT_EPOCH":9171,"BSTAR":0.00051786,"MEAN_MOTION_DOT":0.00023423,"MEAN_MOTION_DDOT":0},{"OBJECT_NAME":"EAGLEEYE","OBJECT_ID":"2024-149AS","EPOCH":"2026-04-04T18:37:56.028288","MEAN_MOTION":15.60545116,"ECCENTRICITY":0.0003744,"INCLINATION":97.3737,"RA_OF_ASC_NODE":184.7057,"ARG_OF_PERICENTER":170.5617,"MEAN_ANOMALY":189.5711,"EPHEMERIS_TYPE":0,"CLASSIFICATION_TYPE":"U","NORAD_CAT_ID":60508,"ELEMENT_SET_NO":999,"REV_AT_EPOCH":9145,"BSTAR":0.0010648,"MEAN_MOTION_DOT":0.00088531,"MEAN_MOTION_DDOT":0},{"OBJECT_NAME":"FLOCK 4BE-29","OBJECT_ID":"2024-149AT","EPOCH":"2026-04-04T18:21:13.715712","MEAN_MOTION":15.41722844,"ECCENTRICITY":0.0003239,"INCLINATION":97.3817,"RA_OF_ASC_NODE":179.6701,"ARG_OF_PERICENTER":176.3857,"MEAN_ANOMALY":183.7414,"EPHEMERIS_TYPE":0,"CLASSIFICATION_TYPE":"U","NORAD_CAT_ID":60509,"ELEMENT_SET_NO":999,"REV_AT_EPOCH":9109,"BSTAR":0.00068415,"MEAN_MOTION_DOT":0.00028883,"MEAN_MOTION_DDOT":0},{"OBJECT_NAME":"TRANSPORTER-11 OBJECT AU","OBJECT_ID":"2024-149AU","EPOCH":"2026-04-04T17:23:19.184640","MEAN_MOTION":15.38195133,"ECCENTRICITY":0.0004046,"INCLINATION":97.3739,"RA_OF_ASC_NODE":177.973,"ARG_OF_PERICENTER":173.634,"MEAN_ANOMALY":186.4957,"EPHEMERIS_TYPE":0,"CLASSIFICATION_TYPE":"U","NORAD_CAT_ID":60510,"ELEMENT_SET_NO":999,"REV_AT_EPOCH":9101,"BSTAR":0.00057185,"MEAN_MOTION_DOT":0.00021468,"MEAN_MOTION_DDOT":0},{"OBJECT_NAME":"FLOCK 4BE-2","OBJECT_ID":"2024-149AV","EPOCH":"2026-04-04T19:18:48.315168","MEAN_MOTION":15.45881646,"ECCENTRICITY":0.0004317,"INCLINATION":97.3822,"RA_OF_ASC_NODE":180.4274,"ARG_OF_PERICENTER":178.5966,"MEAN_ANOMALY":181.5296,"EPHEMERIS_TYPE":0,"CLASSIFICATION_TYPE":"U","NORAD_CAT_ID":60511,"ELEMENT_SET_NO":999,"REV_AT_EPOCH":9114,"BSTAR":0.0012501,"MEAN_MOTION_DOT":0.0006105,"MEAN_MOTION_DDOT":0},{"OBJECT_NAME":"FLOCK 4BE-13","OBJECT_ID":"2024-149AW","EPOCH":"2026-04-04T18:33:42.668064","MEAN_MOTION":15.39893319,"ECCENTRICITY":0.0004829,"INCLINATION":97.3731,"RA_OF_ASC_NODE":178.5333,"ARG_OF_PERICENTER":161.52,"MEAN_ANOMALY":198.6222,"EPHEMERIS_TYPE":0,"CLASSIFICATION_TYPE":"U","NORAD_CAT_ID":60512,"ELEMENT_SET_NO":999,"REV_AT_EPOCH":9106,"BSTAR":0.00057946,"MEAN_MOTION_DOT":0.00023003,"MEAN_MOTION_DDOT":0},{"OBJECT_NAME":"FLOCK 4BE-27","OBJECT_ID":"2024-149AX","EPOCH":"2026-04-04T16:03:41.142816","MEAN_MOTION":15.33190009,"ECCENTRICITY":0.0004002,"INCLINATION":97.3837,"RA_OF_ASC_NODE":176.5546,"ARG_OF_PERICENTER":185.5212,"MEAN_ANOMALY":174.5987,"EPHEMERIS_TYPE":0,"CLASSIFICATION_TYPE":"U","NORAD_CAT_ID":60513,"ELEMENT_SET_NO":999,"REV_AT_EPOCH":9087,"BSTAR":0.00044243,"MEAN_MOTION_DOT":0.00014123,"MEAN_MOTION_DDOT":0},{"OBJECT_NAME":"FLOCK 4BE-9","OBJECT_ID":"2024-149AY","EPOCH":"2026-04-04T18:43:49.126080","MEAN_MOTION":15.38615857,"ECCENTRICITY":0.0003382,"INCLINATION":97.3801,"RA_OF_ASC_NODE":178.4638,"ARG_OF_PERICENTER":176.5957,"MEAN_ANOMALY":183.5311,"EPHEMERIS_TYPE":0,"CLASSIFICATION_TYPE":"U","NORAD_CAT_ID":60514,"ELEMENT_SET_NO":999,"REV_AT_EPOCH":9102,"BSTAR":0.00061182,"MEAN_MOTION_DOT":0.00023295,"MEAN_MOTION_DDOT":0},{"OBJECT_NAME":"FLOCK 4BE-6","OBJECT_ID":"2024-149BA","EPOCH":"2026-04-04T18:08:27.256128","MEAN_MOTION":15.37587307,"ECCENTRICITY":0.0004122,"INCLINATION":97.3801,"RA_OF_ASC_NODE":177.9243,"ARG_OF_PERICENTER":179.146,"MEAN_ANOMALY":180.9793,"EPHEMERIS_TYPE":0,"CLASSIFICATION_TYPE":"U","NORAD_CAT_ID":60516,"ELEMENT_SET_NO":999,"REV_AT_EPOCH":9098,"BSTAR":0.00057375,"MEAN_MOTION_DOT":0.00021119,"MEAN_MOTION_DDOT":0},{"OBJECT_NAME":"FLOCK 4BE-14","OBJECT_ID":"2024-149BB","EPOCH":"2026-04-04T05:10:25.851936","MEAN_MOTION":15.38726009,"ECCENTRICITY":0.00049926,"INCLINATION":97.371,"RA_OF_ASC_NODE":177.4659,"ARG_OF_PERICENTER":184.1465,"MEAN_ANOMALY":175.974,"EPHEMERIS_TYPE":0,"CLASSIFICATION_TYPE":"U","NORAD_CAT_ID":60517,"ELEMENT_SET_NO":999,"REV_AT_EPOCH":9094,"BSTAR":0.00079151184,"MEAN_MOTION_DOT":0.00030303,"MEAN_MOTION_DDOT":0},{"OBJECT_NAME":"FLOCK 4BE-1","OBJECT_ID":"2024-149BC","EPOCH":"2026-04-04T18:13:16.203648","MEAN_MOTION":15.401933,"ECCENTRICITY":0.0004761,"INCLINATION":97.3792,"RA_OF_ASC_NODE":179.0384,"ARG_OF_PERICENTER":181.9815,"MEAN_ANOMALY":178.1413,"EPHEMERIS_TYPE":0,"CLASSIFICATION_TYPE":"U","NORAD_CAT_ID":60518,"ELEMENT_SET_NO":999,"REV_AT_EPOCH":9106,"BSTAR":0.00065387,"MEAN_MOTION_DOT":0.00026236,"MEAN_MOTION_DDOT":0}]
