FLOCK 4BE-33            
1 60502U 24149AL  26094.77869993  .00326803  00000+0  19162-2 0  9994
2 60502  97.3627 180.6960 0005541 190.0675 170.0481 15.77379006 91200
FLOCK 4BE-10            
1 60503U 24149AM  26094.76322176  .01021859  49801-3  23354-2 0  9999
2 60503  97.3595 182.8410 0006645 260.2840  99.7687 15.97462233 91313
YAM-7                   
1 60504U 24149AN  26094.80411821  .00011341  00000+0  38331-3 0  9991
2 60504  97.3797 175.4046 0003618 170.4889 189.6421 15.30803797 90824
FLOCK 4BE-24            
1 60505U 24149AP  26094.76036707  .00026481  00000+0  65569-3 0  9997
2 60505  97.3728 178.4347 0004780 174.1053 186.0250 15.40390396 91055
LUR-1                   
1 60506U 24149AQ  26094.77908185  .00011534  00000+0  41016-3 0  9991
2 60506  97.3758 174.1869 0003940 184.3075 175.8132 15.29141398 90759
TANAGER-1               
1 60507U 24149AR  26094.81874515  .00023423  00000+0  51786-3 0  9991
2 60507  97.3726 188.5532 0007230 199.1597 160.9380 15.43809009 91713
EAGLEEYE                
1 60508U 24149AS  26094.77634292  .00088531  00000+0  10648-2 0  9995
2 60508  97.3737 184.7057 0003744 170.5617 189.5711 15.60545116 91459
FLOCK 4BE-29            
1 60509U 24149AT  26094.76474208  .00028883  00000+0  68415-3 0  9994
2 60509  97.3817 179.6701 0003239 176.3857 183.7414 15.41722844 91097
TRANSPORTER-11 OBJECT AU
1 60510U 24149AU  26094.72452760  .00021468  00000+0  57185-3 0  9995
2 60510  97.3739 177.9730 0004046 173.6340 186.4957 15.38195133 91014
FLOCK 4BE-2             
1 60511U 24149AV  26094.80472587  .00061050  00000+0  12501-2 0  9997
2 60511  97.3822 180.4274 0004317 178.5966 181.5296 15.45881646 91144
FLOCK 4BE-13            
1 60512U 24149AW  26094.77341051  .00023003  00000+0  57946-3 0  9994
2 60512  97.3731 178.5333 0004829 161.5200 198.6222 15.39893319 91061
FLOCK 4BE-27            
1 60513U 24149AX  26094.66922619  .00014123  00000+0  44243-3 0  9997
2 60513  97.3837 176.5546 0004002 185.5212 174.5987 15.33190009 90874
FLOCK 4BE-9             
1 60514U 24149AY  26094.78042970  .00023295  00000+0  61182-3 0  9995
2 60514  97.3801 178.4638 0003382 176.5957 183.5311 15.38615857 91022
FLOCK 4BE-6             
1 60516U 24149BA  26094.75587102  .00021119  00000+0  57375-3 0  9997
2 60516  97.3801 177.9243 0004122 179.1460 180.9793 15.37587307 90987
FLOCK 4BE-14            
1 60517U 24149BB  26094.21557699  .00030303  00000+0  79151-3 0  9998
2 60517  97.3710 177.4659 0004992 184.1465 175.9740 15.38726009 90946
FLOCK 4BE-1             
1 60518U 24149BC  26094.75921532  .00026236  00000+0  65387-3 0  9995
2 60518  97.3792 179.0384 0004761 181.9815 178.1413 15.40193300 91069
